{"_default": { "38": {"norad_id": "15427", "name": "NOAA 9", "tle1": "1 15427U 84123A   26162.97876598  .00000093  00000-0  69173-4 0  9995", "tle2": "2 15427  99.0989 189.4957 0014765   9.0553  53.8929 14.17066794142685", "object_type": "PAYLOAD", "criticality_score": 8.5, "last_updated": "2026-06-12T12:52:23.908888+00:00", "maneuver_count": 0, "owner": "N/A"}, "39": {"norad_id": "14781", "name": "OSCAR-11-UOSAT-2", "tle1": "1 14781U 84021B   26162.85173535  .00001184  00000-0  12615-3 0  9992", "tle2": "2 14781  97.8055 128.4861 0007137 190.5105 169.5965 14.90770083256335", "object_type": "PAYLOAD", "criticality_score": 7.0, "last_updated": "2026-06-12T12:52:23.908888+00:00", "maneuver_count": 0, "owner": "N/A"}, "40": {"norad_id": "7530", "name": "OSCAR-7", "tle1": "1 07530U 74089B   26162.65147907 -.00000028  00000-0  11383-3 0  9999", "tle2": "2 07530 101.9901 175.8403 0012513 140.4232 346.6372 12.53697989359821", "object_type": "PAYLOAD", "criticality_score": 7.0, "last_updated": "2026-06-12T12:52:23.908888+00:00", "maneuver_count": 0, "owner": "N/A"}, "101": {"norad_id": "20442", "name": "OSCAR 19 (LUSAT)", "tle1": "1 20442U 90005G   26162.94930685  .00000099  00000-0  52115-4 0  9993", "tle2": "2 20442  98.8851 184.6105 0010843 217.2541 142.7892 14.34121586901644", "object_type": "PAYLOAD", "criticality_score": 7.0, "last_updated": "2026-06-12T12:52:23.908888+00:00", "maneuver_count": 0, "owner": "N/A"}, "129": {"norad_id": "965", "name": "OPS 6582 (TRANSIT 5B-5)", "tle1": "1 00965U 64083D   26162.64790029  .00000073  00000-0  90121-4 0  9992", "tle2": "2 00965  90.0764 202.9957 0039624 295.3039 178.4194 13.57012344 42861", "object_type": "PAYLOAD", "criticality_score": 7.0, "last_updated": "2026-06-12T12:52:23.908888+00:00", "maneuver_count": 0, "owner": "N/A"}, "153": {"norad_id": "14129", "name": "OSCAR 10", "tle1": "1 14129U 83058B   26158.17238870 -.00000194  00000-0  00000-0 0  9994", "tle2": "2 14129  25.9048 221.2242 6014266 112.9115 319.2048  2.05872980295281", "object_type": "PAYLOAD", "criticality_score": 7.0, "last_updated": "2026-06-12T12:52:23.908888+00:00", "maneuver_count": 0, "owner": "N/A"}, "169": {"norad_id": "1002", "name": "LES 1", "tle1": "1 01002U 65008C   26161.96946214 -.00000003  00000-0 -14884-2 0  9991", "tle2": "2 01002  32.1459  59.4327 0015609 248.1035 111.7802  9.88354966215571", "object_type": "PAYLOAD", "criticality_score": 7.0, "last_updated": "2026-06-12T12:52:23.908888+00:00", "maneuver_count": 0, "owner": "N/A"}, "170": {"norad_id": "1291", "name": "SOLRAD 7B", "tle1": "1 01291U 65016D   26162.66187220  .00000003  00000-0  41235-4 0  9992", "tle2": "2 01291  70.0792 248.0102 0019084 133.3011 226.9690 13.94975042115938", "object_type": "PAYLOAD", "criticality_score": 7.0, "last_updated": "2026-06-12T12:52:23.908888+00:00", "maneuver_count": 0, "owner": "N/A"}, "171": {"norad_id": "1804", "name": "ALOUETTE 2", "tle1": "1 01804U 65098A   26162.78814760  .00000409  00000-0  13614-3 0  9990", "tle2": "2 01804  79.8013 281.2486 1329699 243.4863 102.3990 12.28338904678615", "object_type": "PAYLOAD", "criticality_score": 7.0, "last_updated": "2026-06-12T12:52:23.908888+00:00", "maneuver_count": 0, "owner": "N/A"}, "172": {"norad_id": "2389", "name": "OV3-3", "tle1": "1 02389U 66070A   26162.93189173  .00016915  00000-0  75660-3 0  9998", "tle2": "2 02389  81.3246 335.6489 1012564 171.2986 190.7313 13.45208606598268", "object_type": "PAYLOAD", "criticality_score": 7.0, "last_updated": "2026-06-12T12:52:23.908888+00:00", "maneuver_count": 0, "owner": "N/A"}, "173": {"norad_id": "2412", "name": "ERS 15", "tle1": "1 02412U 66077C   26150.28389959  .00000002  00000-0  00000-0 0  9994", "tle2": "2 02412  90.3351 277.0217 0007312  86.0359 274.1328  8.59079282388929", "object_type": "PAYLOAD", "criticality_score": 7.0, "last_updated": "2026-06-12T12:52:23.908888+00:00", "maneuver_count": 0, "owner": "N/A"}, "174": {"norad_id": "3669", "name": "ISIS 1", "tle1": "1 03669U 69009A   26162.17292526  .00000060  00000-0  44833-4 0  9991", "tle2": "2 03669  88.4423 145.0606 1706065 260.3817  80.1256 11.30433155359093", "object_type": "PAYLOAD", "criticality_score": 7.0, "last_updated": "2026-06-12T12:52:23.908888+00:00", "maneuver_count": 0, "owner": "N/A"}, "175": {"norad_id": "4237", "name": "OPS 7613 (P/L 4)", "tle1": "1 04237U 69082E   26162.93658817  .00000019  00000-0  52514-4 0  9996", "tle2": "2 04237  70.0141 115.1072 0018791 143.0903 275.1164 13.95995643885577", "object_type": "PAYLOAD", "criticality_score": 7.0, "last_updated": "2026-06-12T12:52:23.908888+00:00", "maneuver_count": 0, "owner": "N/A"}, "176": {"norad_id": "4256", "name": "OPS 7613 (P/L 1)", "tle1": "1 04256U 69082B   26162.87483807  .00000069  00000-0  84263-4 0  9996", "tle2": "2 04256  70.0103 336.4270 0017224  69.7276 290.5681 13.99196244889721", "object_type": "PAYLOAD", "criticality_score": 7.0, "last_updated": "2026-06-12T12:52:23.908888+00:00", "maneuver_count": 0, "owner": "N/A"}, "177": {"norad_id": "5485", "name": "SHINSEI (MS-F2)", "tle1": "1 05485U 71080A   26162.60481637  .00000048  00000-0  64297-4 0  9994", "tle2": "2 05485  32.0529 127.2841 0639595   2.1583 358.1575 12.74252020548541", "object_type": "PAYLOAD", "criticality_score": 7.0, "last_updated": "2026-06-12T12:52:23.908888+00:00", "maneuver_count": 0, "owner": "N/A"}, "178": {"norad_id": "5680", "name": "OPS 7898 (P/L 2)", "tle1": "1 05680U 71110C   26162.93169954 -.00000006  00000-0  46350-4 0  9991", "tle2": "2 05680  69.9904  13.7665 0008119 194.1997 165.8870 13.74758376347498", "object_type": "PAYLOAD", "criticality_score": 7.0, "last_updated": "2026-06-12T12:52:23.908888+00:00", "maneuver_count": 0, "owner": "N/A"}, "179": {"norad_id": "18351", "name": "EUTE 1-F4 (ECS 4)", "tle1": "1 18351U 87078B   26162.76226318 -.00000230  00000-0  00000-0 0  9996", "tle2": "2 18351  13.8324 342.1662 0011126  43.7456 130.7661  0.98691114126704", "object_type": "PAYLOAD", "criticality_score": 7.0, "last_updated": "2026-06-12T12:52:23.908888+00:00", "maneuver_count": 0, "owner": "N/A"}, "202": {"norad_id": "5580", "name": "PROSPERO (BLACK ARROW)", "tle1": "1 05580U 71093A   26162.87317261  .00001008  00000-0  21486-3 0  9993", "tle2": "2 05580  82.0386 295.4940 0500205 242.3102 112.6475 14.01597238747785", "object_type": "PAYLOAD", "criticality_score": 7.0, "last_updated": "2026-06-12T12:52:23.908888+00:00", "maneuver_count": 0, "owner": "N/A"}, "204": {"norad_id": "1315", "name": "SECOR 4 (EGRS 4)", "tle1": "1  1315U 65027B   26162.07644064  .00000076  00000-0  25239-3 0  9995", "tle2": "2  1315  90.2497  15.4402 0030088 213.7513 269.1345 12.92667535886132", "object_type": "PAYLOAD", "criticality_score": 7.0, "last_updated": "2026-06-12T12:52:23.908888+00:00", "maneuver_count": 0, "owner": "N/A"}, "230": {"norad_id": "15595", "name": "GEOSAT", "tle1": "1 15595U 85021A   26162.66108210  .00000083  00000-0  69592-4 0  9998", "tle2": "2 15595 108.0432  69.9485 0001301 284.6297  75.4701 14.39963802161972", "object_type": "PAYLOAD", "criticality_score": 7.0, "last_updated": "2026-06-12T12:52:23.908888+00:00", "maneuver_count": 0, "owner": "N/A"}, "276": {"norad_id": "14154", "name": "HILAT", "tle1": "1 14154U 83063A   26162.54773215  .00000334  00000-0  10302-3 0  9995", "tle2": "2 14154  82.0231 166.2694 0038146 309.2154 171.4664 14.38707913246771", "object_type": "PAYLOAD", "criticality_score": 7.0, "last_updated": "2026-06-12T12:52:23.908888+00:00", "maneuver_count": 0, "owner": "N/A"}, "286": {"norad_id": "6235", "name": "NOAA 2 (ITOS-D)", "tle1": "1 06235U 72082A   26162.93378918 -.00000021  00000-0  16021-3 0  9997", "tle2": "2 06235 102.0073 181.4478 0004188 174.5271 245.6317 12.53214820454292", "object_type": "PAYLOAD", "criticality_score": 8.5, "last_updated": "2026-06-12T12:52:23.908888+00:00", "maneuver_count": 0, "owner": "N/A"}, "303": {"norad_id": "21688", "name": "IRS 1B", "tle1": "1 21688U 91061A   26162.96515958  .00000308  00000-0  25029-3 0  9999", "tle2": "2 21688  99.4110 170.7810 0024881  19.9789  39.1971 13.97874955667761", "object_type": "PAYLOAD", "criticality_score": 7.0, "last_updated": "2026-06-12T12:52:23.908888+00:00", "maneuver_count": 0, "owner": "N/A"}, "306": {"norad_id": "4068", "name": "ATS 5", "tle1": "1 04068U 69069A   26162.86801707 -.00000247  00000-0  00000-0 0  9996", "tle2": "2 04068   0.2498 154.7779 0005229 124.7007  89.6241  0.99497515 46270", "object_type": "PAYLOAD", "criticality_score": 7.0, "last_updated": "2026-06-12T12:52:23.908888+00:00", "maneuver_count": 0, "owner": "N/A"}, "320": {"norad_id": "11060", "name": "TIROS N", "tle1": "1 11060U 78096A   26162.92159466  .00000091  00000-0  63144-4 0  9999", "tle2": "2 11060  98.4530 184.2131 0009166 256.1779 103.8378 14.19373661678000", "object_type": "PAYLOAD", "criticality_score": 7.0, "last_updated": "2026-06-12T12:52:23.908888+00:00", "maneuver_count": 0, "owner": "N/A"}, "321": {"norad_id": "1430", "name": "TIROS 10", "tle1": "1 01430U 65051A   26162.90711899  .00000123  00000-0  50575-4 0  9998", "tle2": "2 01430  98.5033 282.2611 0056466  94.8844 265.8795 14.41629146195155", "object_type": "PAYLOAD", "criticality_score": 7.0, "last_updated": "2026-06-12T12:52:23.908888+00:00", "maneuver_count": 0, "owner": "N/A"}, "323": {"norad_id": "2411", "name": "SECOR 7 (EGRS 7)", "tle1": "1 02411U 66077B   26151.80828715 -.00000017  00000-0 -94661-2 0  9996", "tle2": "2 02411  90.3353 277.2466 0011654  75.1080 285.1061  8.59615314875976", "object_type": "PAYLOAD", "criticality_score": 7.0, "last_updated": "2026-06-12T12:52:23.908888+00:00", "maneuver_count": 0, "owner": "N/A"}, "324": {"norad_id": "3891", "name": "SECOR 13 (EGRS 13)", "tle1": "1 03891U 69037B   26162.65733878 -.00000024  00000-0  32458-4 0  9993", "tle2": "2 03891  99.6495  34.3842 0038669 264.9625 162.5621 13.42976814801013", "object_type": "PAYLOAD", "criticality_score": 7.0, "last_updated": "2026-06-12T12:52:23.908888+00:00", "maneuver_count": 0, "owner": "N/A"}, "340": {"norad_id": "20439", "name": "OSCAR 16 (PACSAT)", "tle1": "1 20439U 90005D   26162.67266399  .00000103  00000-0  53737-4 0  9990", "tle2": "2 20439  98.8523 198.2226 0009552 245.3327 235.2258 14.33934933901146", "object_type": "PAYLOAD", "criticality_score": 7.0, "last_updated": "2026-06-12T12:52:23.908888+00:00", "maneuver_count": 0, "owner": "N/A"}, "591": {"norad_id": "22034", "name": "COSMOS 2197", "tle1": "1 22034U 92042A   26162.70144164  .00000011  00000-0  20403-5 0  9998", "tle2": "2 22034  82.5942 232.4385 0011381 287.6138 189.6377 12.64251949564592", "object_type": "PAYLOAD", "criticality_score": 7.0, "last_updated": "2026-06-12T12:52:23.908888+00:00", "maneuver_count": 0, "owner": "N/A"}}}