OBJECT_NAME,OBJECT_ID,EPOCH,MEAN_MOTION,ECCENTRICITY,INCLINATION,RA_OF_ASC_NODE,ARG_OF_PERICENTER,MEAN_ANOMALY,EPHEMERIS_TYPE,CLASSIFICATION_TYPE,NORAD_CAT_ID,ELEMENT_SET_NO,REV_AT_EPOCH,BSTAR,MEAN_MOTION_DOT,MEAN_MOTION_DDOT
OPS 6582 (TRANSIT 5B-5),1964-083D,2026-06-11T15:32:58.585056,13.57012344,.00396239,90.0764,202.9957,295.3039,178.4194,0,U,965,999,4286,.90121047E-4,.73E-6,0
LES-1,1965-008C,2026-06-10T23:16:01.528896,9.88354966,.00156089,32.1459,59.4327,248.1035,111.7802,0,U,1002,999,21557,-.14883543E-2,-.3E-7,0
SOLRAD 7B,1965-016D,2026-06-11T15:53:05.758080,13.94975042,.00190843,70.0792,248.0102,133.3011,226.9690,0,U,1291,999,11593,.41234906E-4,.3E-7,0
SECOR 4 (EGRS 4),1965-027B,2026-06-11T01:50:04.471296,12.92667535,.0030088,90.2497,15.4402,213.7513,269.1345,0,U,1315,999,88613,.25239E-3,.76E-6,0
TIROS 10,1965-051A,2026-06-11T21:46:15.080736,14.41629146,.00564662,98.5033,282.2611,94.8844,265.8795,0,U,1430,999,19515,.50574709E-4,.123E-5,0
ALOUETTE 2,1965-098A,2026-06-11T18:54:55.952640,12.28338904,.1329699,79.8013,281.2486,243.4863,102.3990,0,U,1804,999,67861,.13613508E-3,.409E-5,0
OV3-3,1966-070A,2026-06-11T22:21:55.445472,13.45208606,.1012564,81.3246,335.6489,171.2986,190.7313,0,U,2389,999,59826,.75660003E-3,.16915E-3,0
SECOR 7 (EGRS 7),1966-077B,2026-05-31T19:23:56.009760,8.59615314,.0011654,90.3353,277.2466,75.1080,285.1061,0,U,2411,999,87597,-.94660848E-2,-.17E-6,0
ERS 15,1966-077C,2026-05-30T06:48:48.924576,8.59079282,.00073123,90.3351,277.0217,86.0359,274.1328,0,U,2412,999,38892,0,.2E-7,0
ISIS 1,1969-009A,2026-06-11T04:09:00.742464,11.30433155,.17060649,88.4423,145.0606,260.3817,80.1256,0,U,3669,999,35909,.44833056E-4,.6E-6,0
SECOR 13 (EGRS 13),1969-037B,2026-06-11T15:46:34.070592,13.42976814,.0038669,99.6495,34.3842,264.9625,162.5621,0,U,3891,999,80101,.32457938E-4,-.24E-6,0
ATS 5,1969-069A,2026-06-11T20:49:56.674848,0.99497515,.00052291,0.2498,154.7779,124.7007,89.6241,0,U,4068,999,4627,0,-.247E-5,0
OPS 7613 (P/L 4),1969-082E,2026-06-11T22:28:41.217888,13.95995643,.00187911,70.0141,115.1072,143.0903,275.1164,0,U,4237,999,88557,.52514116E-4,.19E-6,0
OPS 7613 (P/L 1),1969-082B,2026-06-11T20:59:46.009248,13.99196244,.00172239,70.0103,336.4270,69.7276,290.5681,0,U,4256,999,88972,.84263406E-4,.69E-6,0
SHINSEI (MS-F2),1971-080A,2026-06-11T14:30:56.134368,12.74252020,.06395947,32.0529,127.2841,2.1583,358.1575,0,U,5485,999,54854,.6429721E-4,.48E-6,0
PROSPERO (BLACK ARROW),1971-093A,2026-06-11T20:57:22.113504,14.01597238,.05002045,82.0386,295.4940,242.3102,112.6475,0,U,5580,999,74778,.21486122E-3,.1008E-4,0
OPS 7898 (P/L 2),1971-110C,2026-06-11T22:21:38.840256,13.74758376,.00081187,69.9904,13.7665,194.1997,165.8870,0,U,5680,999,34749,.46350221E-4,-.6E-7,0
NOAA 2 (ITOS-D),1972-082A,2026-06-11T22:24:39.385152,12.53214820,.00041877,102.0073,181.4478,174.5271,245.6317,0,U,6235,999,45429,.160212E-3,-.21E-6,0
OSCAR 7 (AO-7),1974-089B,2026-06-11T15:38:07.791648,12.53697989,.00125127,101.9901,175.8403,140.4232,346.6372,0,U,7530,999,35982,.11383187E-3,-.28E-6,0
TIROS N,1978-096A,2026-06-11T22:07:05.778624,14.19373661,.00091656,98.4530,184.2131,256.1779,103.8378,0,U,11060,999,67800,.63143754E-4,.91E-6,0
PHASE 3B (AO-10),1983-058B,2026-06-07T04:08:14.383680,2.05872980,.60142661,25.9048,221.2242,112.9115,319.2048,0,U,14129,999,29528,0,-.194E-5,0
HILAT,1983-063A,2026-06-11T13:08:44.057760,14.38707913,.0038146,82.0231,166.2694,309.2154,171.4664,0,U,14154,999,24677,.10302E-3,.334E-5,0
UOSAT 2 (UO-11),1984-021B,2026-06-11T20:26:29.934240,14.90770083,.00071366,97.8055,128.4861,190.5105,169.5965,0,U,14781,999,25633,.12615067E-3,.1184E-4,0
NOAA 9,1984-123A,2026-06-11T23:29:25.380672,14.17066794,.00147654,99.0989,189.4957,9.0553,53.8929,0,U,15427,999,14268,.69172532E-4,.93E-6,0
GEOSAT,1985-021A,2026-06-11T15:51:57.493440,14.39963802,.00013012,108.0432,69.9485,284.6297,75.4701,0,U,15595,999,16197,.69592305E-4,.83E-6,0
EUTELSAT 1-F4 (ECS 4),1987-078B,2026-06-11T18:17:39.538752,0.98691114,.00111258,13.8324,342.1662,43.7456,130.7661,0,U,18351,999,12670,0,-.23E-5,0
PACSAT (AO-16),1990-005D,2026-06-11T16:08:38.168736,14.33934933,.00095525,98.8523,198.2226,245.3327,235.2258,0,U,20439,999,90114,.53737301E-4,.103E-5,0
LUSAT (LO-19),1990-005G,2026-06-11T22:47:00.111840,14.34121586,.00108429,98.8851,184.6105,217.2541,142.7892,0,U,20442,999,90164,.52114929E-4,.99E-6,0
IRS-1B,1991-061A,2026-06-11T23:09:49.787712,13.97874955,.00248814,99.4110,170.7810,19.9789,39.1971,0,U,21688,999,66776,.25028572E-3,.308E-5,0
COSMOS 2197,1992-042A,2026-06-11T16:50:04.557696,12.64251949,.00113814,82.5942,232.4385,287.6138,189.6377,0,U,22034,999,56459,.2040295E-5,.11E-6,0
